0 FENGYUN 1C DEB
1 37421U 99025EGP 13281.46518131 -.00000009  00000-0  28370-4 0   777
2 37421 098.9094 358.3966 0415398 077.5206 287.2074 13.37823713193961
0 FENGYUN 1C DEB
1 37421U 99025EGP 13284.45662437 -.00000005  00000-0  32752-4 0   784
2 37421 098.9095 001.0264 0415331 070.0559 294.4822 13.37823989194362
0 FENGYUN 1C DEB
1 37421U 99025EGP 13286.47583967 -.00000004  00000-0  34110-4 0   798
2 37421 098.9095 002.8012 0415332 065.0241 299.3451 13.37824147194634
0 FENGYUN 1C DEB
1 37421U 99025EGP 13290.43946432 -.00000002  00000-0  36898-4 0   804
2 37421 098.9101 006.2860 0415245 055.1384 308.8078 13.37824514195160
0 FENGYUN 1C DEB
1 37421U 99025EGP 13292.45866044  .00000011  00000-0  51977-4 0   813
2 37421 098.9092 008.0595 0415421 050.0618 313.6259 13.37824946195438
0 FENGYUN 1C DEB
1 37421U 99025EGP 13295.45005138  .00000028  00000-0  73078-4 0   820
2 37421 098.9098 010.6912 0415457 042.5442 320.7247 13.37825805195831
